TELSTAR 12V             
1 41036U 15068A   26202.61324200 -.00000117  00000+0  00000+0 0  9992
2 41036   0.0188  78.9276 0002364  36.4750  29.7220  1.00271482 38976
ELEKTRO-L 2             
1 41105U 15074A   26202.32835191 -.00000121  00000+0  00000+0 0  9995
2 41105   6.7778  70.1030 0000757 229.8627 102.8417  1.00272384 38847
COSMOS 2513             
1 41121U 15075A   26202.63218461 -.00000137  00000+0  00000+0 0  9990
2 41121   0.0561 103.1724 0002642 343.2111 160.8503  1.00274039 38897
EXPRESS-AMU1            
1 41191U 15082A   26202.55216782  .00000157  00000+0  00000+0 0  9991
2 41191   0.0197  61.4059 0002445  58.9592  53.8082  1.00269800 38613
GAOFEN-4                
1 41194U 15083A   26202.59970685 -.00000333  00000+0  00000+0 0  9995
2 41194   0.4439  83.8614 0004162 121.1097  55.9718  1.00270335 38877
BELINTERSAT-1           
1 41238U 16001A   26202.62655125  .00000109  00000+0  00000+0 0  9998
2 41238   0.0360 236.9405 0001872 192.8628 146.6614  1.00269171 38581
IRNSS-1E                
1 41241U 16003A   26202.03020233 -.00000317  00000+0  00000+0 0  9997
2 41241  33.3051  59.2585 0019282 176.3074 185.9195  1.00275296 38420
EUTELSAT 9B             
1 41310U 16005A   26202.61809536  .00000064  00000+0  00000+0 0  9999
2 41310   0.0163  38.9554 0001348  88.6210  43.3131  1.00276102 38461
SES-9                   
1 41380U 16013A   26202.63774038 -.00000343  00000+0  00000+0 0  9996
2 41380   0.0199 322.4767 0002400 146.3581 168.4474  1.00270246 37783
EUTELSAT 65 WEST A      
1 41382U 16014A   26202.53214773 -.00000275  00000+0  00000+0 0  9997
2 41382   0.0849 299.7453 0002364 174.6418 311.2905  1.00272360 37873
IRNSS-1F                
1 41384U 16015A   26201.91145921  .00000154  00000+0  00000+0 0  9994
2 41384   5.4309  96.0050 0017801 179.6547  23.5708  1.00269281 38004
BEIDOU-2 IGSO-6         
1 41434U 16021A   26177.11016981 -.00000145  00000+0  00000+0 0  9995
2 41434  60.2385  37.9495 0057558 231.0163 137.2672  1.00258926 37578
IRNSS-1G                
1 41469U 16027A   26202.64198707 -.00000337  00000+0  00000+0 0  9996
2 41469   5.2785  96.6775 0005770  13.4143 190.0375  1.00266283 37528
JCSAT-2B                
1 41471U 16028A   26202.57554182 -.00000164  00000+0  00000+0 0  9993
2 41471   0.0167  68.6280 0001096  44.8378 187.0534  1.00270694 37471
THAICOM 8               
1 41552U 16031A   26202.63183794 -.00000119  00000+0  00000+0 0  9991
2 41552   0.0627  39.0319 0003085  38.6002 167.7049  1.00272084 37068
INTELSAT 31 (IS-31)     
1 41581U 16035A   26202.63023006 -.00000149  00000+0  00000+0 0  9999
2 41581   0.0195 278.1031 0000959  35.3919 117.7253  1.00271004 37024
BEIDOU-2 G7             
1 41586U 16037A   26202.63817372 -.00000353  00000+0  00000+0 0  9990
2 41586   1.8037  69.5591 0006111   1.2711 208.8618  1.00270621  7235
ABS-2A (MONGOLSAT-1)    
1 41588U 16038A   26202.41723674 -.00000082  00000+0  00000+0 0  9999
2 41588   0.0091  51.7122 0001841  18.9135  93.4519  1.00270976 37055
EUTELSAT 117 WEST B     
1 41589U 16038B   26202.59313523 -.00000010  00000+0  00000+0 0  9998
2 41589   0.0032 121.2444 0000168  52.0973 222.5439  1.00272106 37009
BRISAT                  
1 41591U 16039A   26202.50335388  .00000000  00000+0  00000+0 0  9994
2 41591   0.0138  36.6742 0002124  80.3279 153.9661  1.00269025 36959
ECHOSTAR 18             
1 41592U 16039B   26202.53284106 -.00000281  00000+0  00000+0 0  9991
2 41592   0.0186  65.6057 0001711  54.0696 310.0704  1.00273725 36963
MUOS-5                  
1 41622U 16041A   26202.59530191 -.00000148  00000+0  00000+0 0  9994
2 41622   2.1310 302.3501 0199921 260.4992 205.7118  1.00273497 37435
TIANTONG-1 1            
1 41725U 16048A   26202.56512873 -.00000318  00000+0  00000+0 0  9998
2 41725   3.9145  43.6751 0004962  57.5711 142.9155  1.00272646 36617
JCSAT-16                
1 41729U 16050A   26202.57354847 -.00000249  00000+0  00000+0 0  9994
2 41729   0.0187  65.3414 0001109  53.4448 170.9646  1.00271026 36419
USA 270                 
1 41744U 16052A   26201.42942394 -.00000355  00000+0  00000+0 0  9994
2 41744   4.2794  76.7594 0009649 103.0391  39.0344  1.00264644 28461
USA 271                 
1 41745U 16052B   26195.12317037 -.00000300  00000+0  00000+0 0  9994
2 41745   4.2370  76.9135 0011085 165.9764 191.3847  1.00268559 28181
INTELSAT 36 (IS-36)     
1 41747U 16053A   26202.62984459 -.00000022  00000+0  00000+0 0  9990
2 41747   0.0099  29.8811 0002435 320.6101 244.1308  1.00272007 36302
INSAT-3DR               
1 41752U 16054A   26202.63097127 -.00000075  00000+0  00000+0 0  9993
2 41752   0.0856  89.0879 0010302 180.3516 331.0807  1.00271610 36167
GSAT-18                 
1 41793U 16060A   26202.63097127 -.00000075  00000+0  00000+0 0  9995
2 41793   0.0507  91.6433 0005428 349.7238 159.1356  1.00272233 35872
SKY MUSTER 2 (NBN1B)    
1 41794U 16060B   26202.64502042  .00000000  00000+0  00000+0 0  9991
2 41794   0.0162  47.9389 0001780  69.0488 199.4337  1.00270862 35861
HIMAWARI-9              
1 41836U 16064A   26202.57294181 -.00000274  00000+0  00000+0 0  9990
2 41836   0.0159 298.4840 0001540 215.2261 132.6148  1.00270432 35555
SHIJIAN-17 (SJ-17)      
1 41838U 16065A   26201.79778086  .00000018  00000+0  00000+0 0  9992
2 41838   5.8361  72.1969 0002108  41.8203 297.8793  0.99868641 35534
