OBJECT_NAME,OBJECT_ID,EPOCH,MEAN_MOTION,ECCENTRICITY,INCLINATION,RA_OF_ASC_NODE,ARG_OF_PERICENTER,MEAN_ANOMALY,EPHEMERIS_TYPE,CLASSIFICATION_TYPE,NORAD_CAT_ID,ELEMENT_SET_NO,REV_AT_EPOCH,BSTAR,MEAN_MOTION_DOT,MEAN_MOTION_DDOT
TELSTAR 12V,2015-068A,2026-07-21T14:43:04.108800,1.00271482,.00023644,0.0188,78.9276,36.4750,29.7220,0,U,41036,999,3897,0,-.117E-5,0
ELEKTRO-L 2,2015-074A,2026-07-21T07:52:49.605024,1.00272384,.00007578,6.7778,70.1030,229.8627,102.8417,0,U,41105,999,3884,0,-.121E-5,0
COSMOS 2513,2015-075A,2026-07-21T15:10:20.750304,1.00274039,.0002642,0.0561,103.1724,343.2111,160.8503,0,U,41121,999,3889,0,-.137E-5,0
EXPRESS-AMU1,2015-082A,2026-07-21T13:15:07.299648,1.00269800,.00024457,0.0197,61.4059,58.9592,53.8082,0,U,41191,999,3861,0,.157E-5,0
GAOFEN-4,2015-083A,2026-07-21T14:23:34.671840,1.00270335,.0004162,0.4439,83.8614,121.1097,55.9718,0,U,41194,999,3887,0,-.333E-5,0
BELINTERSAT-1,2016-001A,2026-07-21T15:02:14.028000,1.00269171,.0001872,0.0360,236.9405,192.8628,146.6614,0,U,41238,999,3858,0,.109E-5,0
IRNSS-1E,2016-003A,2026-07-21T00:43:29.481312,1.00275296,.0019282,33.3051,59.2585,176.3074,185.9195,0,U,41241,999,3842,0,-.317E-5,0
EUTELSAT 9B,2016-005A,2026-07-21T14:50:03.439104,1.00276102,.0001348,0.0163,38.9554,88.6210,43.3131,0,U,41310,999,3846,0,.64E-6,0
SES-9,2016-013A,2026-07-21T15:18:20.768832,1.00270246,.00024,0.0199,322.4767,146.3581,168.4474,0,U,41380,999,3778,0,-.343E-5,0
EUTELSAT 65 WEST A,2016-014A,2026-07-21T12:46:17.563872,1.00272360,.0002364,0.0849,299.7453,174.6418,311.2905,0,U,41382,999,3787,0,-.275E-5,0
IRNSS-1F,2016-015A,2026-07-20T21:52:30.075744,1.00269281,.00178016,5.4309,96.0050,179.6547,23.5708,0,U,41384,999,3800,0,.154E-5,0
BEIDOU-2 IGSO-6,2016-021A,2026-06-26T02:38:38.671584,1.00258926,.0057558,60.2385,37.9495,231.0163,137.2672,0,U,41434,999,3757,0,-.145E-5,0
IRNSS-1G,2016-027A,2026-07-21T15:24:27.682848,1.00266283,.00057705,5.2785,96.6775,13.4143,190.0375,0,U,41469,999,3752,0,-.337E-5,0
JCSAT-2B,2016-028A,2026-07-21T13:48:46.813248,1.00270694,.00010968,0.0167,68.6280,44.8378,187.0534,0,U,41471,999,3747,0,-.164E-5,0
THAICOM 8,2016-031A,2026-07-21T15:09:50.798016,1.00272084,.00030856,0.0627,39.0319,38.6002,167.7049,0,U,41552,999,3706,0,-.119E-5,0
INTELSAT 31 (IS-31),2016-035A,2026-07-21T15:07:31.877184,1.00271004,.00009591,0.0195,278.1031,35.3919,117.7253,0,U,41581,999,3702,0,-.149E-5,0
BEIDOU-2 G7,2016-037A,2026-07-21T15:18:58.209408,1.00270621,.00061113,1.8037,69.5591,1.2711,208.8618,0,U,41586,999,723,0,-.353E-5,0
ABS-2A (MONGOLSAT-1),2016-038A,2026-07-21T10:00:49.254336,1.00270976,.00018419,0.0091,51.7122,18.9135,93.4519,0,U,41588,999,3705,0,-.82E-6,0
EUTELSAT 117 WEST B,2016-038B,2026-07-21T14:14:06.883872,1.00272106,.00001683,0.0032,121.2444,52.0973,222.5439,0,U,41589,999,3700,0,-.1E-6,0
BRISAT,2016-039A,2026-07-21T12:04:49.775232,1.00269025,.00021243,0.0138,36.6742,80.3279,153.9661,0,U,41591,999,3695,0,0,0
ECHOSTAR 18,2016-039B,2026-07-21T12:47:17.467584,1.00273725,.00017116,0.0186,65.6057,54.0696,310.0704,0,U,41592,999,3696,0,-.281E-5,0
MUOS-5,2016-041A,2026-07-21T14:17:14.085024,1.00273497,.01999218,2.1310,302.3501,260.4992,205.7118,0,U,41622,999,3743,0,-.148E-5,0
TIANTONG-1 1,2016-048A,2026-07-21T13:33:47.122272,1.00272646,.0004962,3.9145,43.6751,57.5711,142.9155,0,U,41725,999,3661,0,-.318E-5,0
JCSAT-16,2016-050A,2026-07-21T13:45:54.587808,1.00271026,.00011091,0.0187,65.3414,53.4448,170.9646,0,U,41729,999,3641,0,-.249E-5,0
USA 270,2016-052A,2026-07-20T10:18:22.228416,1.00264644,.0009649,4.2794,76.7594,103.0391,39.0344,0,U,41744,999,2846,0,-.355E-5,0
USA 271,2016-052B,2026-07-14T02:57:21.919968,1.00268559,.0011085,4.2370,76.9135,165.9764,191.3847,0,U,41745,999,2818,0,-.3E-5,0
INTELSAT 36 (IS-36),2016-053A,2026-07-21T15:06:58.572576,1.00272007,.00024355,0.0099,29.8811,320.6101,244.1308,0,U,41747,999,3630,0,-.22E-6,0
INSAT-3DR,2016-054A,2026-07-21T15:08:35.917728,1.00271610,.00103027,0.0856,89.0879,180.3516,331.0807,0,U,41752,999,3616,0,-.75E-6,0
GSAT-18,2016-060A,2026-07-21T15:08:35.917728,1.00272233,.00054287,0.0507,91.6433,349.7238,159.1356,0,U,41793,999,3587,0,-.75E-6,0
SKY MUSTER 2 (NBN1B),2016-060B,2026-07-21T15:28:49.764288,1.00270862,.00017807,0.0162,47.9389,69.0488,199.4337,0,U,41794,999,3586,0,0,0
HIMAWARI-9,2016-064A,2026-07-21T13:45:02.172384,1.00270432,.00015406,0.0159,298.4840,215.2261,132.6148,0,U,41836,999,3555,0,-.274E-5,0
SHIJIAN-17 (SJ-17),2016-065A,2026-07-20T19:08:48.266304,0.99868641,.0002108,5.8361,72.1969,41.8203,297.8793,0,U,41838,999,3553,0,.18E-6,0
